NORAD_CAT_ID,OBJECT_NAME,OBJECT_TYPE,EPOCH,MEAN_MOTION,ECCENTRICITY,INCLINATION,RA_OF_ASC_NODE,ARG_OF_PERICENTER,MEAN_ANOMALY,BSTAR,MEAN_MOTION_DOT,MEAN_MOTION_DDOT,TLE_LINE0,TLE_LINE1,TLE_LINE2,SEMIMAJOR_AXIS,PERIOD,APOGEE,PERIGEE,DECAYED
56795.0,STARLINK-6061,PAYLOAD,2024-07-17 14:58:07,14.98322058,0.0002936,70.0005,37.2647,271.2337,88.8486,6.9288e-06,-1e-07,0.0,0 STARLINK-6061,1 56795U 23078AE  24199.62369556 -.00000010  00000-0  69288-5 0  9999,2 56795  70.0005  37.2647 0002936 271.2337  88.8486 14.98322058 63294,6950.217,96.108,574.123,570.042,0.0
56795.0,STARLINK-6061,PAYLOAD,2024-07-17 19:46:31,14.98322886,0.000302,70.0003,36.7591,270.8664,89.2148,-3.0883e-05,-4.61e-06,0.0,0 STARLINK-6061,1 56795U 23078AE  24199.82397687 -.00000461  00000-0 -30883-4 0  9996,2 56795  70.0003  36.7591 0003020 270.8664  89.2148 14.98322886 63588,6950.215,96.107,574.179,569.981,0.0
56795.0,STARLINK-6061,PAYLOAD,2024-07-17 21:22:39,14.98323991,0.0003023,70.0003,36.5908,270.8583,89.223,-1.8583e-05,-3.15e-06,0.0,0 STARLINK-6061,1 56795U 23078AE  24199.89073600 -.00000315  00000-0 -18583-4 0  9990,2 56795  70.0003  36.5908 0003023 270.8583  89.2230 14.98323991 63334,6950.211,96.107,574.178,569.975,0.0
56795.0,STARLINK-6061,PAYLOAD,2024-07-18 13:23:59,14.98343799,0.0002763,70.0007,34.9077,274.2327,85.8517,-0.00025593,-3.146e-05,0.0,0 STARLINK-6061,1 56795U 23078AE  24200.55833182 -.00003146  00000-0 -25593-3 0  9998,2 56795  70.0007  34.9077 0002763 274.2327  85.8517 14.98343799 63430,6950.15,96.106,573.936,570.095,0.0
56795.0,STARLINK-6061,PAYLOAD,2024-07-18 19:48:32,14.98302791,0.0002809,70.0006,34.2344,268.5501,91.5337,0.00044171,5.178e-05,0.0,0 STARLINK-6061,1 56795U 23078AE  24200.82537770  .00005178  00000-0  44171-3 0  9990,2 56795  70.0006  34.2344 0002809 268.5501  91.5337 14.98302791 63734,6950.277,96.109,574.094,570.19,0.0
56795.0,STARLINK-6061,PAYLOAD,2024-07-18 21:24:41,14.98274679,0.0002609,70.0006,34.0662,266.5953,93.4908,0.00096562,0.00011431,0.0,0 STARLINK-6061,1 56795U 23078AE  24200.89214259  .00011431  00000-0  96562-3 0  9991,2 56795  70.0006  34.0662 0002609 266.5953  93.4908 14.98274679 63482,6950.364,96.111,574.042,570.416,0.0
56795.0,STARLINK-6061,PAYLOAD,2024-07-18 23:00:48,14.98315189,0.0002852,70.0006,33.8977,268.1853,91.8979,0.00032947,3.839e-05,0.0,0 STARLINK-6061,1 56795U 23078AE  24200.95889416  .00003839  00000-0  32947-3 0  9991,2 56795  70.0006  33.8977 0002852 268.1853  91.8979 14.98315189 63757,6950.239,96.108,574.086,570.121,0.0
56795.0,STARLINK-6061,PAYLOAD,2024-07-19 11:49:52,14.98327589,0.0002889,70.0005,32.5513,272.284,87.7988,7.7884e-05,8.36e-06,0.0,0 STARLINK-6061,1 56795U 23078AE  24201.49297149  .00000836  00000-0  77884-4 0  9991,2 56795  70.0005  32.5513 0002889 272.2840  87.7988 14.98327589 63830,6950.2,96.107,574.073,570.057,0.0
56795.0,STARLINK-6061,PAYLOAD,2024-07-19 15:02:08,14.98327205,0.0002906,70.0004,32.2147,272.2881,87.7946,7.2712e-05,7.75e-06,0.0,0 STARLINK-6061,1 56795U 23078AE  24201.62649193  .00000775  00000-0  72712-4 0  9993,2 56795  70.0004  32.2147 0002906 272.2881  87.7946 14.98327205 63596,6950.202,96.107,574.086,570.047,0.0
56795.0,STARLINK-6061,PAYLOAD,2024-07-19 21:26:41,14.98329488,0.0002955,70.0004,31.5417,272.3392,87.7429,6.7317e-05,7.1e-06,0.0,0 STARLINK-6061,1 56795U 23078AE  24201.89353080  .00000710  00000-0  67317-4 0  9993,2 56795  70.0004  31.5417 0002955 272.3392  87.7429 14.98329488 63636,6950.194,96.107,574.113,570.006,0.0
56795.0,STARLINK-6061,PAYLOAD,2024-07-20 13:28:01,14.98329062,0.0002884,70.0005,29.8585,272.1916,87.8913,-1.5664e-05,-2.8e-06,0.0,0 STARLINK-6061,1 56795U 23078AE  24202.56113366 -.00000280  00000-0 -15664-4 0  9991,2 56795  70.0005  29.8585 0002884 272.1916  87.8913 14.98329062 63990,6950.196,96.107,574.065,570.056,0.0
56795.0,STARLINK-6061,PAYLOAD,2024-07-20 21:28:42,14.98331356,0.0002882,70.0006,29.017,271.0998,88.9831,7.1772e-06,-7e-08,0.0,0 STARLINK-6061,1 56795U 23078AE  24202.89493143 -.00000007  00000-0  71772-5 0  9990,2 56795  70.0006  29.0170 0002882 271.0998  88.9831 14.98331356 63786,6950.189,96.107,574.057,570.051,0.0
56795.0,STARLINK-6061,PAYLOAD,2024-07-21 15:06:10,14.98329503,0.0002877,70.0007,27.166,265.0895,94.9935,-2.0156e-05,-3.33e-06,0.0,0 STARLINK-6061,1 56795U 23078AE  24203.62929218 -.00000333  00000-0 -20156-4 0  9991,2 56795  70.0007  27.1660 0002877 265.0895  94.9935 14.98329503 63898,6950.194,96.107,574.059,570.06,0.0
56795.0,STARLINK-6061,PAYLOAD,2024-07-21 19:54:35,14.98329649,0.0002884,70.0008,26.6611,264.9474,95.1356,-1.7266e-05,-2.99e-06,0.0,0 STARLINK-6061,1 56795U 23078AE  24203.82957202 -.00000299  00000-0 -17266-4 0  9996,2 56795  70.0008  26.6611 0002884 264.9474  95.1356 14.98329649 64182,6950.194,96.107,574.063,570.055,0.0
56795.0,STARLINK-6061,PAYLOAD,2024-07-21 21:30:43,14.98330375,0.0002878,70.0008,26.4928,264.9846,95.0985,-8.8471e-06,-1.99e-06,0.0,0 STARLINK-6061,1 56795U 23078AE  24203.89633129 -.00000199  00000-0 -88471-5 0  9998,2 56795  70.0008  26.4928 0002878 264.9846  95.0985 14.98330375 63934,6950.192,96.107,574.057,570.056,0.0
56795.0,STARLINK-6061,PAYLOAD,2024-07-22 13:32:03,14.98327127,0.0002873,70.0009,24.8095,264.3527,95.7305,-1.4819e-06,-1.11e-06,0.0,0 STARLINK-6061,1 56795U 23078AE  24204.56393320 -.00000111  00000-0 -14819-5 0  9998,2 56795  70.0009  24.8095 0002873 264.3527  95.7305 14.98327127 64033,6950.202,96.107,574.064,570.07,0.0
56795.0,STARLINK-6061,PAYLOAD,2024-07-22 21:32:43,14.98332222,0.0002919,70.0008,23.9675,265.9243,94.1583,3.5955e-05,3.36e-06,0.0,0 STARLINK-6061,1 56795U 23078AE  24204.89772904  .00000336  00000-0  35955-4 0  9993,2 56795  70.0008  23.9675 0002919 265.9243  94.1583 14.98332222 64087,6950.186,96.107,574.08,570.022,0.0
56795.0,STARLINK-6061,PAYLOAD,2024-07-23 11:57:56,14.98323893,0.0003001,70.0008,22.4496,267.9647,92.1168,4.2257e-05,4.11e-06,0.0,0 STARLINK-6061,1 56795U 23078AE  24205.49857350  .00000411  00000-0  42257-4 0  9996,2 56795  70.0008  22.4496 0003001 267.9647  92.1168 14.98323893 64435,6950.212,96.107,574.163,569.991,0.0
56795.0,STARLINK-6061,PAYLOAD,2024-07-23 21:34:45,14.98333732,0.0002844,70.0009,21.4398,264.0162,96.0673,-0.00014799,-1.858e-05,0.0,0 STARLINK-6061,1 56795U 23078AE  24205.89913295 -.00001858  00000-0 -14799-3 0  9998,2 56795  70.0009  21.4398 0002844 264.0162  96.0673 14.98333732 64235,6950.181,96.107,574.023,570.07,0.0
56795.0,STARLINK-6061,PAYLOAD,2024-07-24 21:36:45,14.98333963,0.0003075,70.001,18.9143,265.7502,94.3306,1.0045e-05,2.7e-07,0.0,0 STARLINK-6061,1 56795U 23078AE  24206.90052823  .00000027  00000-0  10045-4 0  9998,2 56795  70.0010  18.9143 0003075 265.7502  94.3306 14.98333963 64385,6950.181,96.107,574.183,569.908,0.0
56795.0,STARLINK-6061,PAYLOAD,2024-07-25 21:38:46,14.98330139,0.0002963,70.001,16.3924,268.5756,91.5064,1.054e-05,3.3e-07,0.0,0 STARLINK-6061,1 56795U 23078AE  24207.90193043  .00000033  00000-0  10540-4 0  9996,2 56795  70.0010  16.3924 0002963 268.5756  91.5064 14.98330139 64530,6950.192,96.107,574.117,569.998,0.0
56795.0,STARLINK-6061,PAYLOAD,2024-07-26 10:27:51,14.98331483,0.0002908,69.9997,15.0451,267.9552,92.1274,5.9216e-06,-2.2e-07,0.0,0 STARLINK-6061,1 56795U 23078AE  24208.43600899 -.00000022  00000-0  59216-5 0  9990,2 56795  69.9997  15.0451 0002908 267.9552  92.1274 14.98331483 64610,6950.188,96.107,574.074,570.032,0.0
56795.0,STARLINK-6061,PAYLOAD,2024-07-26 21:40:47,14.98337542,0.0002798,69.999,13.8669,266.6713,93.4126,6.0904e-05,6.34e-06,0.0,0 STARLINK-6061,1 56795U 23078AE  24208.90332222  .00000634  00000-0  60904-4 0  9997,2 56795  69.9990  13.8669 0002798 266.6713  93.4126 14.98337542 64681,6950.17,96.107,573.979,570.09,0.0
56795.0,STARLINK-6061,PAYLOAD,2024-07-27 10:29:52,14.98328947,0.0002292,70.0004,12.5185,248.8948,111.1966,-6.3067e-05,-8.45e-06,0.0,0 STARLINK-6061,1 56795U 23078AE  24209.43741212 -.00000845  00000-0 -63067-4 0  9998,2 56795  70.0004  12.5185 0002292 248.8948 111.1966 14.98328947 65028,6950.196,96.107,573.654,570.468,0.0
56795.0,STARLINK-6061,PAYLOAD,2024-07-28 04:07:23,14.98305756,0.0002768,69.9989,10.6683,262.6243,97.4601,-0.00031551,-3.853e-05,0.0,0 STARLINK-6061,1 56795U 23078AE  24210.17180145 -.00003853  00000-0 -31551-3 0  9997,2 56795  69.9989  10.6683 0002768 262.6243  97.4601 14.98305756 65136,6950.268,96.109,574.057,570.209,0.0
56795.0,STARLINK-6061,PAYLOAD,2024-07-28 12:08:02,14.98330703,0.0003016,70.0006,9.8273,263.9552,96.1263,-1.5482e-06,-1.11e-06,0.0,0 STARLINK-6061,1 56795U 23078AE  24210.50557974 -.00000111  00000-0 -15482-5 0  9993,2 56795  70.0006   9.8273 0003016 263.9552  96.1263 14.98330703 65183,6950.191,96.107,574.152,569.96,0.0
56795.0,STARLINK-6061,PAYLOAD,2024-07-28 20:08:41,14.98340229,0.0003077,70.0004,8.984,260.2964,99.7848,2.097e-05,1.57e-06,0.0,0 STARLINK-6061,1 56795U 23078AE  24210.83937233  .00000157  00000-0  20970-4 0  9994,2 56795  70.0004   8.9840 0003077 260.2964  99.7848 14.98340229 65233,6950.161,96.106,574.165,569.888,0.0
56795.0,STARLINK-6061,PAYLOAD,2024-07-29 04:09:20,14.98417208,0.0003096,70.0001,8.1425,263.3175,96.7632,-0.0012202,-0.00014655,0.0,0 STARLINK-6061,1 56795U 23078AE  24211.17315638 -.00014655  00000-0 -12202-2 0  9998,2 56795  70.0001   8.1425 0003096 263.3175  96.7632 14.98417208 65285,6949.923,96.101,573.94,569.637,0.0
56795.0,STARLINK-6061,PAYLOAD,2024-07-29 10:33:54,14.98325354,0.0003516,70.0002,7.4692,262.4883,97.5877,0.00033744,3.935e-05,0.0,0 STARLINK-6061,1 56795U 23078AE  24211.44021013  .00003935  00000-0  33744-3 0  9991,2 56795  70.0002   7.4692 0003516 262.4883  97.5877 14.98325354 65322,6950.207,96.107,574.516,569.629,0.0
56795.0,STARLINK-6061,PAYLOAD,2024-07-29 20:10:41,14.98335334,0.0003346,70.0006,6.4604,264.6473,95.4304,0.00041937,4.915e-05,0.0,0 STARLINK-6061,1 56795U 23078AE  24211.84076207  .00004915  00000-0  41937-3 0  9992,2 56795  70.0006   6.4604 0003346 264.6473  95.4304 14.98335334 65385,6950.176,96.107,574.367,569.716,0.0
